CZ-3A R/B               
1 40368U 14090B   26094.86630211  .00000985  00000+0  10033-2 0  9993
2 40368  24.8140  66.0561 7268208 195.7617 115.9055  2.26163578 90673
FENGYUN 2G AKM          
1 40369U 14090C   26094.54456245  .00000116  00000+0  00000+0 0  9998
2 40369   7.3733  69.4917 0047168 172.6960 187.4227  0.99585235 40900
MUOS-3                  
1 40374U 15002A   26095.24282987 -.00000126  00000+0  00000+0 0  9998
2 40374   4.3812  43.1538 0051685 182.7624  39.6005  1.00271458 40855
INMARSAT 5-F2           
1 40384U 15005A   26095.09229222  .00000000  00000+0  00000+0 0  9998
2 40384   0.0151 193.9324 0000913 186.1660 151.5245  1.00268400 40266
BREEZE-M R/B            
1 40385U 15005B   26094.57877734 -.00000385  00000+0  00000+0 0  9995
2 40385  27.2646 280.2401 7561992 120.2876 333.3875  1.11107278 45336
ABS-3A                  
1 40424U 15010A   26095.24525655 -.00000025  00000+0  00000+0 0  9993
2 40424   0.0101 124.7009 0001330 202.9253 311.2319  1.00270748 40644
EUTELSAT 115 WEST B     
1 40425U 15010B   26095.22307276 -.00000024  00000+0  00000+0 0  9998
2 40425   0.0178  55.2383 0000295 213.1155 250.5811  1.00270619 40667
MMS 1                   
1 40482U 15011A   26095.33335648 -.00001288  00000+0  00000+0 0  9991
2 40482  71.1408 349.8048 8383489 165.8513  67.0423  0.28341977  1306
MMS 2                   
1 40483U 15011B   26095.33335648 -.00001288  00000+0  00000+0 0  9992
2 40483  71.1410 349.8070 8384236 165.8573  67.0272  0.28341994  1303
MMS 3                   
1 40484U 15011C   26095.33335648 -.00001288  00000+0  00000+0 0  9993
2 40484  71.1436 349.8116 8383489 165.8516  67.0319  0.28341950  1303
MMS 4                   
1 40485U 15011D   26095.33335648 -.00001288  00000+0  00000+0 0  9994
2 40485  71.1413 349.8068 8383046 165.8603  67.0135  0.28340799  1307
EXPRESS-AM7             
1 40505U 15012A   26095.25374993  .00000152  00000+0  00000+0 0  9993
2 40505   0.0005 176.1913 0003124 192.6203 316.0904  1.00270436 40271
BEIDOU-3S IGSO-1S       
1 40549U 15019A   26082.29086919 -.00000163  00000+0  00000+0 0  9999
2 40549  49.3559 296.4949 0036261 190.1236 255.1180  1.00268843 40213
THOR 7                  
1 40613U 15022A   26095.22822667 -.00000007  00000+0  00000+0 0  9997
2 40613   0.0269 114.2541 0002708 264.3808 256.3935  1.00272260 40084
TURKMENALEM52E/MONACOSAT
1 40617U 15023A   26095.18485262  .00000105  00000+0  00000+0 0  9991
2 40617   0.0218 108.1516 0003112 269.9803 293.9188  1.00270574 40119
DIRECTV 15              
1 40663U 15026A   26095.13933712 -.00000101  00000+0  00000+0 0  9995
2 40663   0.0332  92.6431 0000377  63.9851 344.0959  1.00272271 39731
SKY MEXICO-1            
1 40664U 15026B   26095.16919711 -.00000233  00000+0  00000+0 0  9998
2 40664   0.0191 117.2639 0002606 283.6419 134.6689  1.00271759 39729
