[{"OBJECT_NAME":"CZ-3A R/B","OBJECT_ID":"2014-090B","EPOCH":"2026-04-04T20:47:28.502304","MEAN_MOTION":2.26163578,"ECCENTRICITY":0.72682084,"INCLINATION":24.814,"RA_OF_ASC_NODE":66.0561,"ARG_OF_PERICENTER":195.7617,"MEAN_ANOMALY":115.9055,"EPHEMERIS_TYPE":0,"CLASSIFICATION_TYPE":"U","NORAD_CAT_ID":40368,"ELEMENT_SET_NO":999,"REV_AT_EPOCH":9067,"BSTAR":0.0010033307,"MEAN_MOTION_DOT":9.85e-6,"MEAN_MOTION_DDOT":0},{"OBJECT_NAME":"FENGYUN 2G AKM","OBJECT_ID":"2014-090C","EPOCH":"2026-04-04T13:04:10.195680","MEAN_MOTION":0.99585235,"ECCENTRICITY":0.00471686,"INCLINATION":7.3733,"RA_OF_ASC_NODE":69.4917,"ARG_OF_PERICENTER":172.696,"MEAN_ANOMALY":187.4227,"EPHEMERIS_TYPE":0,"CLASSIFICATION_TYPE":"U","NORAD_CAT_ID":40369,"ELEMENT_SET_NO":999,"REV_AT_EPOCH":4090,"BSTAR":0,"MEAN_MOTION_DOT":1.16e-6,"MEAN_MOTION_DDOT":0},{"OBJECT_NAME":"MUOS-3","OBJECT_ID":"2015-002A","EPOCH":"2026-04-05T05:49:40.500768","MEAN_MOTION":1.00271458,"ECCENTRICITY":0.00516856,"INCLINATION":4.3812,"RA_OF_ASC_NODE":43.1538,"ARG_OF_PERICENTER":182.7624,"MEAN_ANOMALY":39.6005,"EPHEMERIS_TYPE":0,"CLASSIFICATION_TYPE":"U","NORAD_CAT_ID":40374,"ELEMENT_SET_NO":999,"REV_AT_EPOCH":4085,"BSTAR":0,"MEAN_MOTION_DOT":-1.26e-6,"MEAN_MOTION_DDOT":0},{"OBJECT_NAME":"INMARSAT 5-F2","OBJECT_ID":"2015-005A","EPOCH":"2026-04-05T02:12:54.047808","MEAN_MOTION":1.002684,"ECCENTRICITY":9.131e-5,"INCLINATION":0.0151,"RA_OF_ASC_NODE":193.9324,"ARG_OF_PERICENTER":186.166,"MEAN_ANOMALY":151.5245,"EPHEMERIS_TYPE":0,"CLASSIFICATION_TYPE":"U","NORAD_CAT_ID":40384,"ELEMENT_SET_NO":999,"REV_AT_EPOCH":4026,"BSTAR":0,"MEAN_MOTION_DOT":0,"MEAN_MOTION_DDOT":0},{"OBJECT_NAME":"BREEZE-M R/B","OBJECT_ID":"2015-005B","EPOCH":"2026-04-04T13:53:26.362176","MEAN_MOTION":1.11107278,"ECCENTRICITY":0.7561992,"INCLINATION":27.2646,"RA_OF_ASC_NODE":280.2401,"ARG_OF_PERICENTER":120.2876,"MEAN_ANOMALY":333.3875,"EPHEMERIS_TYPE":0,"CLASSIFICATION_TYPE":"U","NORAD_CAT_ID":40385,"ELEMENT_SET_NO":999,"REV_AT_EPOCH":4533,"BSTAR":0,"MEAN_MOTION_DOT":-3.85e-6,"MEAN_MOTION_DDOT":0},{"OBJECT_NAME":"ABS-3A","OBJECT_ID":"2015-010A","EPOCH":"2026-04-05T05:53:10.165920","MEAN_MOTION":1.00270748,"ECCENTRICITY":0.00013309,"INCLINATION":0.0101,"RA_OF_ASC_NODE":124.7009,"ARG_OF_PERICENTER":202.9253,"MEAN_ANOMALY":311.2319,"EPHEMERIS_TYPE":0,"CLASSIFICATION_TYPE":"U","NORAD_CAT_ID":40424,"ELEMENT_SET_NO":999,"REV_AT_EPOCH":4064,"BSTAR":0,"MEAN_MOTION_DOT":-2.5e-7,"MEAN_MOTION_DDOT":0},{"OBJECT_NAME":"EUTELSAT 115 WEST B","OBJECT_ID":"2015-010B","EPOCH":"2026-04-05T05:21:13.486464","MEAN_MOTION":1.00270619,"ECCENTRICITY":2.956e-5,"INCLINATION":0.0178,"RA_OF_ASC_NODE":55.2383,"ARG_OF_PERICENTER":213.1155,"MEAN_ANOMALY":250.5811,"EPHEMERIS_TYPE":0,"CLASSIFICATION_TYPE":"U","NORAD_CAT_ID":40425,"ELEMENT_SET_NO":999,"REV_AT_EPOCH":4066,"BSTAR":0,"MEAN_MOTION_DOT":-2.4e-7,"MEAN_MOTION_DDOT":0},{"OBJECT_NAME":"MMS 1","OBJECT_ID":"2015-011A","EPOCH":"2026-04-05T08:00:01.999872","MEAN_MOTION":0.28341977,"ECCENTRICITY":0.83834891,"INCLINATION":71.1408,"RA_OF_ASC_NODE":349.8048,"ARG_OF_PERICENTER":165.8513,"MEAN_ANOMALY":67.0423,"EPHEMERIS_TYPE":0,"CLASSIFICATION_TYPE":"U","NORAD_CAT_ID":40482,"ELEMENT_SET_NO":999,"REV_AT_EPOCH":130,"BSTAR":0,"MEAN_MOTION_DOT":-1.288e-5,"MEAN_MOTION_DDOT":0},{"OBJECT_NAME":"MMS 2","OBJECT_ID":"2015-011B","EPOCH":"2026-04-05T08:00:01.999872","MEAN_MOTION":0.28341994,"ECCENTRICITY":0.83842363,"INCLINATION":71.141,"RA_OF_ASC_NODE":349.807,"ARG_OF_PERICENTER":165.8573,"MEAN_ANOMALY":67.0272,"EPHEMERIS_TYPE":0,"CLASSIFICATION_TYPE":"U","NORAD_CAT_ID":40483,"ELEMENT_SET_NO":999,"REV_AT_EPOCH":130,"BSTAR":0,"MEAN_MOTION_DOT":-1.288e-5,"MEAN_MOTION_DDOT":0},{"OBJECT_NAME":"MMS 3","OBJECT_ID":"2015-011C","EPOCH":"2026-04-05T08:00:01.999872","MEAN_MOTION":0.2834195,"ECCENTRICITY":0.83834896,"INCLINATION":71.1436,"RA_OF_ASC_NODE":349.8116,"ARG_OF_PERICENTER":165.8516,"MEAN_ANOMALY":67.0319,"EPHEMERIS_TYPE":0,"CLASSIFICATION_TYPE":"U","NORAD_CAT_ID":40484,"ELEMENT_SET_NO":999,"REV_AT_EPOCH":130,"BSTAR":0,"MEAN_MOTION_DOT":-1.288e-5,"MEAN_MOTION_DDOT":0},{"OBJECT_NAME":"MMS 4","OBJECT_ID":"2015-011D","EPOCH":"2026-04-05T08:00:01.999872","MEAN_MOTION":0.28340799,"ECCENTRICITY":0.83830461,"INCLINATION":71.1413,"RA_OF_ASC_NODE":349.8068,"ARG_OF_PERICENTER":165.8603,"MEAN_ANOMALY":67.0135,"EPHEMERIS_TYPE":0,"CLASSIFICATION_TYPE":"U","NORAD_CAT_ID":40485,"ELEMENT_SET_NO":999,"REV_AT_EPOCH":130,"BSTAR":0,"MEAN_MOTION_DOT":-1.288e-5,"MEAN_MOTION_DDOT":0},{"OBJECT_NAME":"EXPRESS-AM7","OBJECT_ID":"2015-012A","EPOCH":"2026-04-05T06:05:23.993952","MEAN_MOTION":1.00270436,"ECCENTRICITY":0.0003124,"INCLINATION":0.0005,"RA_OF_ASC_NODE":176.1913,"ARG_OF_PERICENTER":192.6203,"MEAN_ANOMALY":316.0904,"EPHEMERIS_TYPE":0,"CLASSIFICATION_TYPE":"U","NORAD_CAT_ID":40505,"ELEMENT_SET_NO":999,"REV_AT_EPOCH":4027,"BSTAR":0,"MEAN_MOTION_DOT":1.52e-6,"MEAN_MOTION_DDOT":0},{"OBJECT_NAME":"BEIDOU-3S IGSO-1S","OBJECT_ID":"2015-019A","EPOCH":"2026-03-23T06:58:51.098016","MEAN_MOTION":1.00268843,"ECCENTRICITY":0.0036261,"INCLINATION":49.3559,"RA_OF_ASC_NODE":296.4949,"ARG_OF_PERICENTER":190.1236,"MEAN_ANOMALY":255.118,"EPHEMERIS_TYPE":0,"CLASSIFICATION_TYPE":"U","NORAD_CAT_ID":40549,"ELEMENT_SET_NO":999,"REV_AT_EPOCH":4021,"BSTAR":0,"MEAN_MOTION_DOT":-1.63e-6,"MEAN_MOTION_DDOT":0},{"OBJECT_NAME":"THOR 7","OBJECT_ID":"2015-022A","EPOCH":"2026-04-05T05:28:38.784288","MEAN_MOTION":1.0027226,"ECCENTRICITY":0.00027087,"INCLINATION":0.0269,"RA_OF_ASC_NODE":114.2541,"ARG_OF_PERICENTER":264.3808,"MEAN_ANOMALY":256.3935,"EPHEMERIS_TYPE":0,"CLASSIFICATION_TYPE":"U","NORAD_CAT_ID":40613,"ELEMENT_SET_NO":999,"REV_AT_EPOCH":4008,"BSTAR":0,"MEAN_MOTION_DOT":-7.0e-8,"MEAN_MOTION_DDOT":0},{"OBJECT_NAME":"TURKMENALEM52E/MONACOSAT","OBJECT_ID":"2015-023A","EPOCH":"2026-04-05T04:26:11.266368","MEAN_MOTION":1.00270574,"ECCENTRICITY":0.00031126,"INCLINATION":0.0218,"RA_OF_ASC_NODE":108.1516,"ARG_OF_PERICENTER":269.9803,"MEAN_ANOMALY":293.9188,"EPHEMERIS_TYPE":0,"CLASSIFICATION_TYPE":"U","NORAD_CAT_ID":40617,"ELEMENT_SET_NO":999,"REV_AT_EPOCH":4011,"BSTAR":0,"MEAN_MOTION_DOT":1.05e-6,"MEAN_MOTION_DDOT":0},{"OBJECT_NAME":"DIRECTV 15","OBJECT_ID":"2015-026A","EPOCH":"2026-04-05T03:20:38.727168","MEAN_MOTION":1.00272271,"ECCENTRICITY":3.776e-5,"INCLINATION":0.0332,"RA_OF_ASC_NODE":92.6431,"ARG_OF_PERICENTER":63.9851,"MEAN_ANOMALY":344.0959,"EPHEMERIS_TYPE":0,"CLASSIFICATION_TYPE":"U","NORAD_CAT_ID":40663,"ELEMENT_SET_NO":999,"REV_AT_EPOCH":3973,"BSTAR":0,"MEAN_MOTION_DOT":-1.01e-6,"MEAN_MOTION_DDOT":0},{"OBJECT_NAME":"SKY MEXICO-1","OBJECT_ID":"2015-026B","EPOCH":"2026-04-05T04:03:38.630304","MEAN_MOTION":1.00271759,"ECCENTRICITY":0.00026063,"INCLINATION":0.0191,"RA_OF_ASC_NODE":117.2639,"ARG_OF_PERICENTER":283.6419,"MEAN_ANOMALY":134.6689,"EPHEMERIS_TYPE":0,"CLASSIFICATION_TYPE":"U","NORAD_CAT_ID":40664,"ELEMENT_SET_NO":999,"REV_AT_EPOCH":3972,"BSTAR":0,"MEAN_MOTION_DOT":-2.33e-6,"MEAN_MOTION_DDOT":0}]
